{
  "type": "FeatureCollection",
  "features": [
    {
      "type": "Feature",
      "properties": {
        "kind": "route",
        "distance_m": 1022.3,
        "estimated_time_s": 730.2
      },
      "geometry": {
        "type": "LineString",
        "coordinates": [
          [
            2.1451955,
            41.3927169
          ],
          [
            2.1451905,
            41.392701
          ],
          [
            2.1451703,
            41.3926267
          ],
          [
            2.1451515,
            41.3925754
          ],
          [
            2.1451235,
            41.3925226
          ],
          [
            2.1450685,
            41.3924642
          ],
          [
            2.145098,
            41.3924371
          ],
          [
            2.1451056,
            41.3924313
          ],
          [
            2.14509,
            41.392421
          ],
          [
            2.1450743,
            41.3924107
          ],
          [
            2.1449923,
            41.3923571
          ],
          [
            2.1449267,
            41.3923141
          ],
          [
            2.1448955,
            41.3923064
          ],
          [
            2.1447131,
            41.3922512
          ],
          [
            2.1445888,
            41.392225
          ],
          [
            2.1445493,
            41.3921957
          ],
          [
            2.1444485,
            41.3921814
          ],
          [
            2.1444001,
            41.3921727
          ],
          [
            2.144386,
            41.3921725
          ],
          [
            2.1442632,
            41.3921712
          ],
          [
            2.1441322,
            41.3921698
          ],
          [
            2.1441087,
            41.3921668
          ],
          [
            2.1440556,
            41.3921592
          ],
          [
            2.1439784,
            41.3921529
          ],
          [
            2.1439146,
            41.3921852
          ],
          [
            2.143861,
            41.3922221
          ],
          [
            2.1431327,
            41.3920444
          ],
          [
            2.1428948,
            41.3919831
          ],
          [
            2.1428176,
            41.3919364
          ],
          [
            2.1427458,
            41.3919203
          ],
          [
            2.1426212,
            41.3918902
          ],
          [
            2.1425811,
            41.3918965
          ],
          [
            2.1425072,
            41.3918809
          ],
          [
            2.1416423,
            41.391658
          ],
          [
            2.1415219,
            41.3916264
          ],
          [
            2.1412555,
            41.3915429
          ],
          [
            2.1412213,
            41.3915342
          ],
          [
            2.141199,
            41.3915293
          ],
          [
            2.1411316,
            41.3915128
          ],
          [
            2.140099,
            41.391268
          ],
          [
            2.1399783,
            41.3912351
          ],
          [
            2.1398599,
            41.3911812
          ],
          [
            2.1398338,
            41.3911756
          ],
          [
            2.1396184,
            41.3911214
          ],
          [
            2.1393508,
            41.3910538
          ],
          [
            2.1384837,
            41.3908341
          ],
          [
            2.1382318,
            41.3907687
          ],
          [
            2.1375706,
            41.3905982
          ],
          [
            2.1375215,
            41.3905821
          ],
          [
            2.137379,
            41.3905444
          ],
          [
            2.1372597,
            41.3905119
          ],
          [
            2.1372141,
            41.3905035
          ],
          [
            2.1369751,
            41.3904354
          ],
          [
            2.136893,
            41.3903772
          ],
          [
            2.1368314,
            41.3903548
          ],
          [
            2.1367832,
            41.3903432
          ],
          [
            2.1367294,
            41.3903336
          ],
          [
            2.1361881,
            41.3901955
          ],
          [
            2.1359939,
            41.3901429
          ],
          [
            2.1355527,
            41.3900364
          ],
          [
            2.1351622,
            41.3899348
          ],
          [
            2.1340886,
            41.389661
          ],
          [
            2.1341151,
            41.389607
          ]
        ]
      }
    },
    {
      "type": "Feature",
      "properties": {
        "kind": "origin"
      },
      "geometry": {
        "type": "Point",
        "coordinates": [
          2.1449657,
          41.3928429
        ]
      }
    },
    {
      "type": "Feature",
      "properties": {
        "kind": "destination"
      },
      "geometry": {
        "type": "Point",
        "coordinates": [
          2.134638908085956,
          41.38976822303293
        ]
      }
    },
    {
      "type": "Feature",
      "properties": {
        "kind": "crossing",
        "road_type": "secondary",
        "is_signaled": false,
        "road_width_m": 9.0,
        "crossing_length_m": 5.2,
        "crossing_bearing": 259.3,
        "step_index": 15,
        "stroke": "#CC0000",
        "stroke-width": 4
      },
      "geometry": {
        "type": "LineString",
        "coordinates": [
          [
            2.144510010289,
            41.392190126162035
          ],
          [
            2.1444485,
            41.3921814
          ]
        ]
      }
    },
    {
      "type": "Feature",
      "properties": {
        "kind": "crossing",
        "road_type": "secondary",
        "is_signaled": false,
        "road_width_m": 9.0,
        "crossing_length_m": 5.2,
        "crossing_bearing": 259.3,
        "step_index": 15,
        "endpoint": "entry",
        "marker-color": "#CC0000",
        "marker-symbol": "square",
        "marker-size": "small"
      },
      "geometry": {
        "type": "Point",
        "coordinates": [
          2.144510010289,
          41.392190126162035
        ]
      }
    },
    {
      "type": "Feature",
      "properties": {
        "kind": "crossing",
        "road_type": "secondary",
        "is_signaled": false,
        "road_width_m": 9.0,
        "crossing_length_m": 5.2,
        "crossing_bearing": 259.3,
        "step_index": 15,
        "endpoint": "exit",
        "marker-color": "#CC0000",
        "marker-symbol": "triangle",
        "marker-size": "small"
      },
      "geometry": {
        "type": "Point",
        "coordinates": [
          2.1444485,
          41.3921814
        ]
      }
    },
    {
      "type": "Feature",
      "properties": {
        "kind": "crossing",
        "road_type": "secondary",
        "is_signaled": false,
        "road_width_m": 9.0,
        "crossing_length_m": 4.1,
        "crossing_bearing": 256.5,
        "step_index": 16,
        "stroke": "#CC0000",
        "stroke-width": 4
      },
      "geometry": {
        "type": "LineString",
        "coordinates": [
          [
            2.1444485,
            41.3921814
          ],
          [
            2.1444001,
            41.3921727
          ]
        ]
      }
    },
    {
      "type": "Feature",
      "properties": {
        "kind": "crossing",
        "road_type": "secondary",
        "is_signaled": false,
        "road_width_m": 9.0,
        "crossing_length_m": 4.1,
        "crossing_bearing": 256.5,
        "step_index": 16,
        "endpoint": "entry",
        "marker-color": "#CC0000",
        "marker-symbol": "square",
        "marker-size": "small"
      },
      "geometry": {
        "type": "Point",
        "coordinates": [
          2.1444485,
          41.3921814
        ]
      }
    },
    {
      "type": "Feature",
      "properties": {
        "kind": "crossing",
        "road_type": "secondary",
        "is_signaled": false,
        "road_width_m": 9.0,
        "crossing_length_m": 4.1,
        "crossing_bearing": 256.5,
        "step_index": 16,
        "endpoint": "exit",
        "marker-color": "#CC0000",
        "marker-symbol": "triangle",
        "marker-size": "small"
      },
      "geometry": {
        "type": "Point",
        "coordinates": [
          2.1444001,
          41.3921727
        ]
      }
    },
    {
      "type": "Feature",
      "properties": {
        "kind": "crossing",
        "road_type": "secondary",
        "is_signaled": false,
        "road_width_m": 9.8,
        "crossing_length_m": 4.5,
        "crossing_bearing": 259.2,
        "step_index": 21,
        "stroke": "#CC0000",
        "stroke-width": 4
      },
      "geometry": {
        "type": "LineString",
        "coordinates": [
          [
            2.1441087,
            41.3921668
          ],
          [
            2.1440556,
            41.3921592
          ]
        ]
      }
    },
    {
      "type": "Feature",
      "properties": {
        "kind": "crossing",
        "road_type": "secondary",
        "is_signaled": false,
        "road_width_m": 9.8,
        "crossing_length_m": 4.5,
        "crossing_bearing": 259.2,
        "step_index": 21,
        "endpoint": "entry",
        "marker-color": "#CC0000",
        "marker-symbol": "square",
        "marker-size": "small"
      },
      "geometry": {
        "type": "Point",
        "coordinates": [
          2.1441087,
          41.3921668
        ]
      }
    },
    {
      "type": "Feature",
      "properties": {
        "kind": "crossing",
        "road_type": "secondary",
        "is_signaled": false,
        "road_width_m": 9.8,
        "crossing_length_m": 4.5,
        "crossing_bearing": 259.2,
        "step_index": 21,
        "endpoint": "exit",
        "marker-color": "#CC0000",
        "marker-symbol": "triangle",
        "marker-size": "small"
      },
      "geometry": {
        "type": "Point",
        "coordinates": [
          2.1440556,
          41.3921592
        ]
      }
    },
    {
      "type": "Feature",
      "properties": {
        "kind": "crossing",
        "road_type": "secondary",
        "is_signaled": false,
        "road_width_m": 9.8,
        "crossing_length_m": 5.3,
        "crossing_bearing": 263.8,
        "step_index": 22,
        "stroke": "#CC0000",
        "stroke-width": 4
      },
      "geometry": {
        "type": "LineString",
        "coordinates": [
          [
            2.1440556,
            41.3921592
          ],
          [
            2.1439921264178823,
            41.392154020161044
          ]
        ]
      }
    },
    {
      "type": "Feature",
      "properties": {
        "kind": "crossing",
        "road_type": "secondary",
        "is_signaled": false,
        "road_width_m": 9.8,
        "crossing_length_m": 5.3,
        "crossing_bearing": 263.8,
        "step_index": 22,
        "endpoint": "entry",
        "marker-color": "#CC0000",
        "marker-symbol": "square",
        "marker-size": "small"
      },
      "geometry": {
        "type": "Point",
        "coordinates": [
          2.1440556,
          41.3921592
        ]
      }
    },
    {
      "type": "Feature",
      "properties": {
        "kind": "crossing",
        "road_type": "secondary",
        "is_signaled": false,
        "road_width_m": 9.8,
        "crossing_length_m": 5.3,
        "crossing_bearing": 263.8,
        "step_index": 22,
        "endpoint": "exit",
        "marker-color": "#CC0000",
        "marker-symbol": "triangle",
        "marker-size": "small"
      },
      "geometry": {
        "type": "Point",
        "coordinates": [
          2.1439921264178823,
          41.392154020161044
        ]
      }
    },
    {
      "type": "Feature",
      "properties": {
        "kind": "crossing",
        "road_type": "residential",
        "is_signaled": false,
        "road_width_m": 6.0,
        "crossing_length_m": 3.9,
        "crossing_bearing": 253.4,
        "step_index": 28,
        "stroke": "#CC0000",
        "stroke-width": 4
      },
      "geometry": {
        "type": "LineString",
        "coordinates": [
          [
            2.142790246849891,
            41.39193026649419
          ],
          [
            2.1427458,
            41.3919203
          ]
        ]
      }
    },
    {
      "type": "Feature",
      "properties": {
        "kind": "crossing",
        "road_type": "residential",
        "is_signaled": false,
        "road_width_m": 6.0,
        "crossing_length_m": 3.9,
        "crossing_bearing": 253.4,
        "step_index": 28,
        "endpoint": "entry",
        "marker-color": "#CC0000",
        "marker-symbol": "square",
        "marker-size": "small"
      },
      "geometry": {
        "type": "Point",
        "coordinates": [
          2.142790246849891,
          41.39193026649419
        ]
      }
    },
    {
      "type": "Feature",
      "properties": {
        "kind": "crossing",
        "road_type": "residential",
        "is_signaled": false,
        "road_width_m": 6.0,
        "crossing_length_m": 3.9,
        "crossing_bearing": 253.4,
        "step_index": 28,
        "endpoint": "exit",
        "marker-color": "#CC0000",
        "marker-symbol": "triangle",
        "marker-size": "small"
      },
      "geometry": {
        "type": "Point",
        "coordinates": [
          2.1427458,
          41.3919203
        ]
      }
    },
    {
      "type": "Feature",
      "properties": {
        "kind": "crossing",
        "road_type": "residential",
        "is_signaled": false,
        "road_width_m": 6.0,
        "crossing_length_m": 3.6,
        "crossing_bearing": 252.2,
        "step_index": 29,
        "stroke": "#CC0000",
        "stroke-width": 4
      },
      "geometry": {
        "type": "LineString",
        "coordinates": [
          [
            2.1427458,
            41.3919203
          ],
          [
            2.142704287611444,
            41.39191027172636
          ]
        ]
      }
    },
    {
      "type": "Feature",
      "properties": {
        "kind": "crossing",
        "road_type": "residential",
        "is_signaled": false,
        "road_width_m": 6.0,
        "crossing_length_m": 3.6,
        "crossing_bearing": 252.2,
        "step_index": 29,
        "endpoint": "entry",
        "marker-color": "#CC0000",
        "marker-symbol": "square",
        "marker-size": "small"
      },
      "geometry": {
        "type": "Point",
        "coordinates": [
          2.1427458,
          41.3919203
        ]
      }
    },
    {
      "type": "Feature",
      "properties": {
        "kind": "crossing",
        "road_type": "residential",
        "is_signaled": false,
        "road_width_m": 6.0,
        "crossing_length_m": 3.6,
        "crossing_bearing": 252.2,
        "step_index": 29,
        "endpoint": "exit",
        "marker-color": "#CC0000",
        "marker-symbol": "triangle",
        "marker-size": "small"
      },
      "geometry": {
        "type": "Point",
        "coordinates": [
          2.142704287611444,
          41.39191027172636
        ]
      }
    },
    {
      "type": "Feature",
      "properties": {
        "kind": "crossing",
        "road_type": "residential",
        "is_signaled": false,
        "road_width_m": 3.2,
        "crossing_length_m": 1.6,
        "crossing_bearing": 253.7,
        "step_index": 36,
        "stroke": "#CC0000",
        "stroke-width": 4
      },
      "geometry": {
        "type": "LineString",
        "coordinates": [
          [
            2.141217728935232,
            41.39153341532658
          ],
          [
            2.141199,
            41.3915293
          ]
        ]
      }
    },
    {
      "type": "Feature",
      "properties": {
        "kind": "crossing",
        "road_type": "residential",
        "is_signaled": false,
        "road_width_m": 3.2,
        "crossing_length_m": 1.6,
        "crossing_bearing": 253.7,
        "step_index": 36,
        "endpoint": "entry",
        "marker-color": "#CC0000",
        "marker-symbol": "square",
        "marker-size": "small"
      },
      "geometry": {
        "type": "Point",
        "coordinates": [
          2.141217728935232,
          41.39153341532658
        ]
      }
    },
    {
      "type": "Feature",
      "properties": {
        "kind": "crossing",
        "road_type": "residential",
        "is_signaled": false,
        "road_width_m": 3.2,
        "crossing_length_m": 1.6,
        "crossing_bearing": 253.7,
        "step_index": 36,
        "endpoint": "exit",
        "marker-color": "#CC0000",
        "marker-symbol": "triangle",
        "marker-size": "small"
      },
      "geometry": {
        "type": "Point",
        "coordinates": [
          2.141199,
          41.3915293
        ]
      }
    },
    {
      "type": "Feature",
      "properties": {
        "kind": "crossing",
        "road_type": "residential",
        "is_signaled": false,
        "road_width_m": 3.2,
        "crossing_length_m": 1.6,
        "crossing_bearing": 251.9,
        "step_index": 37,
        "stroke": "#CC0000",
        "stroke-width": 4
      },
      "geometry": {
        "type": "LineString",
        "coordinates": [
          [
            2.141199,
            41.3915293
          ],
          [
            2.1411804458241495,
            41.39152475780562
          ]
        ]
      }
    },
    {
      "type": "Feature",
      "properties": {
        "kind": "crossing",
        "road_type": "residential",
        "is_signaled": false,
        "road_width_m": 3.2,
        "crossing_length_m": 1.6,
        "crossing_bearing": 251.9,
        "step_index": 37,
        "endpoint": "entry",
        "marker-color": "#CC0000",
        "marker-symbol": "square",
        "marker-size": "small"
      },
      "geometry": {
        "type": "Point",
        "coordinates": [
          2.141199,
          41.3915293
        ]
      }
    },
    {
      "type": "Feature",
      "properties": {
        "kind": "crossing",
        "road_type": "residential",
        "is_signaled": false,
        "road_width_m": 3.2,
        "crossing_length_m": 1.6,
        "crossing_bearing": 251.9,
        "step_index": 37,
        "endpoint": "exit",
        "marker-color": "#CC0000",
        "marker-symbol": "triangle",
        "marker-size": "small"
      },
      "geometry": {
        "type": "Point",
        "coordinates": [
          2.1411804458241495,
          41.39152475780562
        ]
      }
    },
    {
      "type": "Feature",
      "properties": {
        "kind": "crossing",
        "road_type": "primary",
        "is_signaled": false,
        "road_width_m": 13.0,
        "crossing_length_m": 13.0,
        "crossing_bearing": 251.5,
        "step_index": 42,
        "stroke": "#CC0000",
        "stroke-width": 4
      },
      "geometry": {
        "type": "LineString",
        "coordinates": [
          [
            2.139766165055748,
            41.391158581365
          ],
          [
            2.1396184,
            41.3911214
          ]
        ]
      }
    },
    {
      "type": "Feature",
      "properties": {
        "kind": "crossing",
        "road_type": "primary",
        "is_signaled": false,
        "road_width_m": 13.0,
        "crossing_length_m": 13.0,
        "crossing_bearing": 251.5,
        "step_index": 42,
        "endpoint": "entry",
        "marker-color": "#CC0000",
        "marker-symbol": "square",
        "marker-size": "small"
      },
      "geometry": {
        "type": "Point",
        "coordinates": [
          2.139766165055748,
          41.391158581365
        ]
      }
    },
    {
      "type": "Feature",
      "properties": {
        "kind": "crossing",
        "road_type": "primary",
        "is_signaled": false,
        "road_width_m": 13.0,
        "crossing_length_m": 13.0,
        "crossing_bearing": 251.5,
        "step_index": 42,
        "endpoint": "exit",
        "marker-color": "#CC0000",
        "marker-symbol": "triangle",
        "marker-size": "small"
      },
      "geometry": {
        "type": "Point",
        "coordinates": [
          2.1396184,
          41.3911214
        ]
      }
    },
    {
      "type": "Feature",
      "properties": {
        "kind": "crossing",
        "road_type": "primary",
        "is_signaled": false,
        "road_width_m": 13.0,
        "crossing_length_m": 12.9,
        "crossing_bearing": 251.4,
        "step_index": 43,
        "stroke": "#CC0000",
        "stroke-width": 4
      },
      "geometry": {
        "type": "LineString",
        "coordinates": [
          [
            2.1396184,
            41.3911214
          ],
          [
            2.1394710436766005,
            41.39108417545792
          ]
        ]
      }
    },
    {
      "type": "Feature",
      "properties": {
        "kind": "crossing",
        "road_type": "primary",
        "is_signaled": false,
        "road_width_m": 13.0,
        "crossing_length_m": 12.9,
        "crossing_bearing": 251.4,
        "step_index": 43,
        "endpoint": "entry",
        "marker-color": "#CC0000",
        "marker-symbol": "square",
        "marker-size": "small"
      },
      "geometry": {
        "type": "Point",
        "coordinates": [
          2.1396184,
          41.3911214
        ]
      }
    },
    {
      "type": "Feature",
      "properties": {
        "kind": "crossing",
        "road_type": "primary",
        "is_signaled": false,
        "road_width_m": 13.0,
        "crossing_length_m": 12.9,
        "crossing_bearing": 251.4,
        "step_index": 43,
        "endpoint": "exit",
        "marker-color": "#CC0000",
        "marker-symbol": "triangle",
        "marker-size": "small"
      },
      "geometry": {
        "type": "Point",
        "coordinates": [
          2.1394710436766005,
          41.39108417545792
        ]
      }
    },
    {
      "type": "Feature",
      "properties": {
        "kind": "crossing",
        "road_type": "secondary",
        "is_signaled": false,
        "road_width_m": 13.0,
        "crossing_length_m": 6.9,
        "crossing_bearing": 250.6,
        "step_index": 48,
        "stroke": "#CC0000",
        "stroke-width": 4
      },
      "geometry": {
        "type": "LineString",
        "coordinates": [
          [
            2.137457173124325,
            41.39056508159149
          ],
          [
            2.137379,
            41.3905444
          ]
        ]
      }
    },
    {
      "type": "Feature",
      "properties": {
        "kind": "crossing",
        "road_type": "secondary",
        "is_signaled": false,
        "road_width_m": 13.0,
        "crossing_length_m": 6.9,
        "crossing_bearing": 250.6,
        "step_index": 48,
        "endpoint": "entry",
        "marker-color": "#CC0000",
        "marker-symbol": "square",
        "marker-size": "small"
      },
      "geometry": {
        "type": "Point",
        "coordinates": [
          2.137457173124325,
          41.39056508159149
        ]
      }
    },
    {
      "type": "Feature",
      "properties": {
        "kind": "crossing",
        "road_type": "secondary",
        "is_signaled": false,
        "road_width_m": 13.0,
        "crossing_length_m": 6.9,
        "crossing_bearing": 250.6,
        "step_index": 48,
        "endpoint": "exit",
        "marker-color": "#CC0000",
        "marker-symbol": "triangle",
        "marker-size": "small"
      },
      "geometry": {
        "type": "Point",
        "coordinates": [
          2.137379,
          41.3905444
        ]
      }
    },
    {
      "type": "Feature",
      "properties": {
        "kind": "crossing",
        "road_type": "secondary",
        "is_signaled": false,
        "road_width_m": 13.0,
        "crossing_length_m": 6.9,
        "crossing_bearing": 250.0,
        "step_index": 49,
        "stroke": "#CC0000",
        "stroke-width": 4
      },
      "geometry": {
        "type": "LineString",
        "coordinates": [
          [
            2.137379,
            41.3905444
          ],
          [
            2.137300623032035,
            41.39052304835324
          ]
        ]
      }
    },
    {
      "type": "Feature",
      "properties": {
        "kind": "crossing",
        "road_type": "secondary",
        "is_signaled": false,
        "road_width_m": 13.0,
        "crossing_length_m": 6.9,
        "crossing_bearing": 250.0,
        "step_index": 49,
        "endpoint": "entry",
        "marker-color": "#CC0000",
        "marker-symbol": "square",
        "marker-size": "small"
      },
      "geometry": {
        "type": "Point",
        "coordinates": [
          2.137379,
          41.3905444
        ]
      }
    },
    {
      "type": "Feature",
      "properties": {
        "kind": "crossing",
        "road_type": "secondary",
        "is_signaled": false,
        "road_width_m": 13.0,
        "crossing_length_m": 6.9,
        "crossing_bearing": 250.0,
        "step_index": 49,
        "endpoint": "exit",
        "marker-color": "#CC0000",
        "marker-symbol": "triangle",
        "marker-size": "small"
      },
      "geometry": {
        "type": "Point",
        "coordinates": [
          2.137300623032035,
          41.39052304835324
        ]
      }
    },
    {
      "type": "Feature",
      "properties": {
        "kind": "crossing",
        "road_type": "residential",
        "is_signaled": false,
        "road_width_m": 3.2,
        "crossing_length_m": 1.7,
        "crossing_bearing": 244.1,
        "step_index": 53,
        "stroke": "#CC0000",
        "stroke-width": 4
      },
      "geometry": {
        "type": "LineString",
        "coordinates": [
          [
            2.136849243450541,
            41.390361288527465
          ],
          [
            2.1368314,
            41.3903548
          ]
        ]
      }
    },
    {
      "type": "Feature",
      "properties": {
        "kind": "crossing",
        "road_type": "residential",
        "is_signaled": false,
        "road_width_m": 3.2,
        "crossing_length_m": 1.7,
        "crossing_bearing": 244.1,
        "step_index": 53,
        "endpoint": "entry",
        "marker-color": "#CC0000",
        "marker-symbol": "square",
        "marker-size": "small"
      },
      "geometry": {
        "type": "Point",
        "coordinates": [
          2.136849243450541,
          41.390361288527465
        ]
      }
    },
    {
      "type": "Feature",
      "properties": {
        "kind": "crossing",
        "road_type": "residential",
        "is_signaled": false,
        "road_width_m": 3.2,
        "crossing_length_m": 1.7,
        "crossing_bearing": 244.1,
        "step_index": 53,
        "endpoint": "exit",
        "marker-color": "#CC0000",
        "marker-symbol": "triangle",
        "marker-size": "small"
      },
      "geometry": {
        "type": "Point",
        "coordinates": [
          2.1368314,
          41.3903548
        ]
      }
    },
    {
      "type": "Feature",
      "properties": {
        "kind": "crossing",
        "road_type": "residential",
        "is_signaled": false,
        "road_width_m": 3.2,
        "crossing_length_m": 1.7,
        "crossing_bearing": 252.2,
        "step_index": 54,
        "stroke": "#CC0000",
        "stroke-width": 4
      },
      "geometry": {
        "type": "LineString",
        "coordinates": [
          [
            2.1368314,
            41.3903548
          ],
          [
            2.136811632596156,
            41.39035004269949
          ]
        ]
      }
    },
    {
      "type": "Feature",
      "properties": {
        "kind": "crossing",
        "road_type": "residential",
        "is_signaled": false,
        "road_width_m": 3.2,
        "crossing_length_m": 1.7,
        "crossing_bearing": 252.2,
        "step_index": 54,
        "endpoint": "entry",
        "marker-color": "#CC0000",
        "marker-symbol": "square",
        "marker-size": "small"
      },
      "geometry": {
        "type": "Point",
        "coordinates": [
          2.1368314,
          41.3903548
        ]
      }
    },
    {
      "type": "Feature",
      "properties": {
        "kind": "crossing",
        "road_type": "residential",
        "is_signaled": false,
        "road_width_m": 3.2,
        "crossing_length_m": 1.7,
        "crossing_bearing": 252.2,
        "step_index": 54,
        "endpoint": "exit",
        "marker-color": "#CC0000",
        "marker-symbol": "triangle",
        "marker-size": "small"
      },
      "geometry": {
        "type": "Point",
        "coordinates": [
          2.136811632596156,
          41.39035004269949
        ]
      }
    },
    {
      "type": "Feature",
      "properties": {
        "kind": "crossing",
        "road_type": "residential",
        "is_signaled": false,
        "road_width_m": 6.0,
        "crossing_length_m": 6.3,
        "crossing_bearing": 251.2,
        "step_index": 60,
        "stroke": "#CC0000",
        "stroke-width": 4
      },
      "geometry": {
        "type": "LineString",
        "coordinates": [
          [
            2.1343858906923696,
            41.389736817987675
          ],
          [
            2.134314579182196,
            41.38971863142705
          ]
        ]
      }
    },
    {
      "type": "Feature",
      "properties": {
        "kind": "crossing",
        "road_type": "residential",
        "is_signaled": false,
        "road_width_m": 6.0,
        "crossing_length_m": 6.3,
        "crossing_bearing": 251.2,
        "step_index": 60,
        "endpoint": "entry",
        "marker-color": "#CC0000",
        "marker-symbol": "square",
        "marker-size": "small"
      },
      "geometry": {
        "type": "Point",
        "coordinates": [
          2.1343858906923696,
          41.389736817987675
        ]
      }
    },
    {
      "type": "Feature",
      "properties": {
        "kind": "crossing",
        "road_type": "residential",
        "is_signaled": false,
        "road_width_m": 6.0,
        "crossing_length_m": 6.3,
        "crossing_bearing": 251.2,
        "step_index": 60,
        "endpoint": "exit",
        "marker-color": "#CC0000",
        "marker-symbol": "triangle",
        "marker-size": "small"
      },
      "geometry": {
        "type": "Point",
        "coordinates": [
          2.134314579182196,
          41.38971863142705
        ]
      }
    }
  ]
}